IRIDIUM 171             
1 43929U 19002H   25079.38687918  .00000596  00000+0  20571-3 0  9999
2 43929  86.4058 183.4773 0001804 103.9293 256.2104 14.34217398323913
IRIDIUM 170             
1 43930U 19002J   25078.86900113  .00004024  00000+0  63375-3 0  9997
2 43930  86.6165 183.4642 0002216  87.2581 272.8890 14.72273351332417
IRIDIUM 167             
1 43931U 19002K   25078.89216204  .00000960  00000+0  33572-3 0  9993
2 43931  86.4046 183.4463 0001775  88.2809 271.8590 14.34219211323844
IRIDIUM 181             
1 56726U 23068S   25078.99891561  .00000487  00000+0  13874-3 0  9999
2 56726  86.4469 246.4736 0001602  92.4240 267.7145 14.43318975 96920
IRIDIUM 177             
1 56727U 23068T   25078.83690255  .00005534  00000+0  72377-3 0  9991
2 56727  86.2036 184.5040 0002046  89.3141 270.8314 14.80279163 99154
IRIDIUM 174             
1 56728U 23068U   25079.23710771  .00005348  00000+0  69936-3 0  9993
2 56728  86.2041 184.4399 0002156 105.4917 254.6542 14.80273506 99215
IRIDIUM 178             
1 56729U 23068V   25078.96128088  .00005174  00000+0  67655-3 0  9990
2 56729  86.5807 215.0486 0002147 118.1722 241.9717 14.80272215 99176
IRIDIUM 179             
1 56730U 23068W   25078.95588546  .00000094  00000+0  88770-5 0  9999
2 56730  86.6796 222.6488 0002258  95.9994 264.1485 14.80215840 99178
